[{"OBJECT_NAME":"PRAETORIAN SDA_606","OBJECT_ID":"2025-203E","EPOCH":"2026-03-09T13:52:35.845824","MEAN_MOTION":13.83528814,"ECCENTRICITY":0.0007292,"INCLINATION":81.3028,"RA_OF_ASC_NODE":103.1011,"ARG_OF_PERICENTER":99.5197,"MEAN_ANOMALY":260.6784,"EPHEMERIS_TYPE":0,"CLASSIFICATION_TYPE":"U","NORAD_CAT_ID":65569,"ELEMENT_SET_NO":999,"REV_AT_EPOCH":2491,"BSTAR":0.0002082,"MEAN_MOTION_DOT":2.41e-6,"MEAN_MOTION_DDOT":0},{"OBJECT_NAME":"FENGYUN 1C DEB","OBJECT_ID":"1999-025BGY","EPOCH":"2026-03-05T06:49:03.575424","MEAN_MOTION":14.28071687,"ECCENTRICITY":0.0210868,"INCLINATION":99.0478,"RA_OF_ASC_NODE":3.0139,"ARG_OF_PERICENTER":288.797,"MEAN_ANOMALY":69.0441,"EPHEMERIS_TYPE":0,"CLASSIFICATION_TYPE":"U","NORAD_CAT_ID":31146,"ELEMENT_SET_NO":999,"REV_AT_EPOCH":97943,"BSTAR":0.0008093,"MEAN_MOTION_DOT":2.496e-5,"MEAN_MOTION_DDOT":0}]
